{
    "links": {
        "self": "http://www.neowsapp.com/rest/v1/neo/54017060?api_key=iIulBulltgU6a56xZRHN4H3l9WmuAYTsLGpBGhQ2"
    },
    "id": "54017060",
    "neo_reference_id": "54017060",
    "name": "(2020 KJ)",
    "designation": "2020 KJ",
    "nasa_jpl_url": "http://ssd.jpl.nasa.gov/sbdb.cgi?sstr=54017060",
    "absolute_magnitude_h": 24.516,
    "estimated_diameter": {
        "kilometers": {
            "estimated_diameter_min": 0.0332165847,
            "estimated_diameter_max": 0.0742745414
        },
        "meters": {
            "estimated_diameter_min": 33.2165846979,
            "estimated_diameter_max": 74.2745413648
        },
        "miles": {
            "estimated_diameter_min": 0.0206398225,
            "estimated_diameter_max": 0.046152046
        },
        "feet": {
            "estimated_diameter_min": 108.9782997402,
            "estimated_diameter_max": 243.6828862914
        }
    },
    "is_potentially_hazardous_asteroid": false,
    "close_approach_data": [
        {
            "close_approach_date": "2020-05-23",
            "close_approach_date_full": "2020-May-23 16:48",
            "epoch_date_close_approach": 1590252480000,
            "relative_velocity": {
                "kilometers_per_second": "15.6927534813",
                "kilometers_per_hour": "56493.9125328334",
                "miles_per_hour": "35103.1202624153"
            },
            "miss_distance": {
                "astronomical": "0.0230272632",
                "lunar": "8.9576053848",
                "kilometers": "3444829.526649384",
                "miles": "2140517.8107301392"
            },
            "orbiting_body": "Earth"
        },
        {
            "close_approach_date": "2025-12-28",
            "close_approach_date_full": "2025-Dec-28 05:00",
            "epoch_date_close_approach": 1766898000000,
            "relative_velocity": {
                "kilometers_per_second": "4.4791722322",
                "kilometers_per_hour": "16125.020035914",
                "miles_per_hour": "10019.4603662044"
            },
            "miss_distance": {
                "astronomical": "1.36856335",
                "lunar": "532.37114315",
                "kilometers": "204734162.1200645",
                "miles": "127215909.2613101"
            },
            "orbiting_body": "Juptr"
        },
        {
            "close_approach_date": "2069-05-10",
            "close_approach_date_full": "2069-May-10 03:28",
            "epoch_date_close_approach": 3135382080000,
            "relative_velocity": {
                "kilometers_per_second": "19.850614808",
                "kilometers_per_hour": "71462.213308723",
                "miles_per_hour": "44403.8402639673"
            },
            "miss_distance": {
                "astronomical": "0.1302105243",
                "lunar": "50.6518939527",
                "kilometers": "19479217.086863241",
                "miles": "12103824.2359890858"
            },
            "orbiting_body": "Earth"
        }
    ],
    "orbital_data": {
        "orbit_id": "6",
        "orbit_determination_date": "2020-06-02 06:16:01",
        "first_observation_date": "2020-04-27",
        "last_observation_date": "2020-05-22",
        "data_arc_in_days": 25,
        "observations_used": 56,
        "orbit_uncertainty": "7",
        "minimum_orbit_intersection": ".0230392",
        "jupiter_tisserand_invariant": "3.162",
        "epoch_osculation": "2459000.5",
        "eccentricity": ".647352059087442",
        "semi_major_axis": "2.427261327956833",
        "inclination": "11.95192000303117",
        "ascending_node_longitude": "68.09067291112703",
        "orbital_period": "1381.252991996151",
        "perihelion_distance": ".8559687093606583",
        "perihelion_argument": "225.3798667269072",
        "aphelion_distance": "3.998553946553007",
        "perihelion_time": "2459028.692705814339",
        "mean_anomaly": "352.6520527723931",
        "mean_motion": ".260632919592621",
        "equinox": "J2000",
        "orbit_class": {
            "orbit_class_type": "APO",
            "orbit_class_description": "Near-Earth asteroid orbits which cross the Earth’s orbit similar to that of 1862 Apollo",
            "orbit_class_range": "a (semi-major axis) > 1.0 AU; q (perihelion) < 1.017 AU"
        }
    },
    "is_sentry_object": false
}